CCSDS_OEM_VERS = 1.0
CREATION_DATE  = 2017-05-11T11:14:35
ORIGINATOR     = GMAT USER

META_START
OBJECT_NAME          = MOPSSat_alt_35785_km_RAAN_90_057
OBJECT_ID            = SatId
CENTER_NAME          = Earth
REF_FRAME            = EME2000
TIME_SYSTEM          = UTC
START_TIME           = 2017-01-01T00:00:00.000
USEABLE_START_TIME   = 2017-01-01T00:00:00.000
USEABLE_STOP_TIME    = 2017-01-02T00:00:00.000
STOP_TIME            = 2017-01-02T00:00:00.000
INTERPOLATION        = Lagrange
INTERPOLATION_DEGREE = 7 
META_STOP


                                                                                   

2017-01-01T13:17:30.000   1.437102521191108e+04  -3.963840551100655e+04   1.973544146207148e-01   2.890548357295249e+00   1.048224096885205e+00  -1.069136603272051e-04
2017-01-01T13:17:40.000   1.439992687236833e+04  -3.962791273101034e+04   1.962850089858032e-01   2.889783389865111e+00   1.050331777383998e+00  -1.069674558837687e-04
2017-01-01T13:17:50.000   1.442882087552852e+04  -3.961739887697667e+04   1.952150656184109e-01   2.889016885493429e+00   1.052438899620053e+00  -1.070212063518603e-04
2017-01-01T13:18:00.000   1.445770720589371e+04  -3.960686395454135e+04   1.941445849745231e-01   2.888248844590780e+00   1.054545462463021e+00  -1.070749116787296e-04
2017-01-01T13:18:10.000   1.448658584796762e+04  -3.959630796935234e+04   1.930735675107403e-01   2.887479267568629e+00   1.056651464782679e+00  -1.071285718116306e-04
2017-01-01T13:18:20.000   1.451545678635924e+04  -3.958573092703263e+04   1.920020136804651e-01   2.886708154836624e+00   1.058756905456477e+00  -1.071821866980170e-04
2017-01-01T13:18:30.000   1.454432000571364e+04  -3.957513283320468e+04   1.909299239364338e-01   2.885935506804365e+00   1.060861783364497e+00  -1.072357562854091e-04
2017-01-01T13:18:40.000   1.457317549071207e+04  -3.956451369349042e+04   1.898572987307210e-01   2.885161323881424e+00   1.062966097389459e+00  -1.072892805213965e-04
2017-01-01T13:18:50.000   1.460202322614043e+04  -3.955387351348522e+04   1.887841385121617e-01   2.884385606475433e+00   1.065069846421713e+00  -1.073427593537541e-04
2017-01-01T13:19:00.000   1.463086319678634e+04  -3.954321229879650e+04   1.877104437302021e-01   2.883608354994903e+00   1.067173029351735e+00  -1.073961927302631e-04
2017-01-01T13:19:10.000   1.465969538742880e+04  -3.953253005504762e+04   1.866362148352916e-01   2.882829569849510e+00   1.069275645069372e+00  -1.074495805986875e-04
2017-01-01T13:19:20.000   1.468851978280899e+04  -3.952182678788730e+04   1.855614522799184e-01   2.882049251450778e+00   1.071377692461712e+00  -1.075029229067340e-04
2017-01-01T13:19:30.000   1.471733636760783e+04  -3.951110250299974e+04   1.844861565195094e-01   2.881267400212818e+00   1.073479170411447e+00  -1.075562196019966e-04
2017-01-01T13:19:40.000   1.474614512653049e+04  -3.950035720607238e+04   1.834103280092500e-01   2.880484016549976e+00   1.075580077803038e+00  -1.076094706321178e-04
2017-01-01T13:19:50.000   1.477494604392758e+04  -3.948959090293961e+04   1.823339672183139e-01   2.879699100887317e+00   1.077680413495088e+00  -1.076626759440739e-04
2017-01-01T13:20:00.000   1.480373910425440e+04  -3.947880359940912e+04   1.812570746126318e-01   2.878912653647955e+00   1.079780176353836e+00  -1.077158354850387e-04
2017-01-01T13:20:10.000   1.483252429190006e+04  -3.946799530132623e+04   1.801796506612933e-01   2.878124675257752e+00   1.081879365240691e+00  -1.077689492020617e-04
2017-01-01T13:20:20.000   1.486130159184973e+04  -3.945716601432550e+04   1.791016958117692e-01   2.877335166127201e+00   1.083977979060531e+00  -1.078220170433090e-04
2017-01-01T13:20:30.000   1.489007098902405e+04  -3.944631574407835e+04   1.780232105146214e-01   2.876544126669486e+00   1.086076016713527e+00  -1.078750389568252e-04
2017-01-01T13:20:40.000   1.491883246842891e+04  -3.943544449623723e+04   1.769441952179136e-01   2.875751557296407e+00   1.088173477106068e+00  -1.079280148908176e-04
2017-01-01T13:20:50.000   1.494758601478193e+04  -3.942455227657362e+04   1.758646503811127e-01   2.874957458428446e+00   1.090270359123518e+00  -1.079809447929457e-04
2017-01-01T13:21:00.000   1.497633161279011e+04  -3.941363909087643e+04   1.747845764647883e-01   2.874161830487351e+00   1.092366661650467e+00  -1.080338286108550e-04
2017-01-01T13:21:10.000   1.500506924714941e+04  -3.940270494495085e+04   1.737039739305841e-01   2.873364673896060e+00   1.094462383570699e+00  -1.080866662921679e-04
2017-01-01T13:21:20.000   1.503379890226948e+04  -3.939174984472620e+04   1.726228432516775e-01   2.872565989086565e+00   1.096557523747118e+00  -1.081394577839997e-04
2017-01-01T13:21:30.000   1.506252056264486e+04  -3.938077379611185e+04   1.715411848987184e-01   2.871765776489394e+00   1.098652081048821e+00  -1.081922030336193e-04
2017-01-01T13:21:40.000   1.509123421270864e+04  -3.936977680505341e+04   1.704589993453589e-01   2.870964036537732e+00   1.100746054340417e+00  -1.082449019881877e-04
2017-01-01T13:21:50.000   1.511993983748049e+04  -3.935875887728498e+04   1.693762870438368e-01   2.870160769649331e+00   1.102839442529295e+00  -1.082975545959298e-04
2017-01-01T13:22:00.000   1.514863742191852e+04  -3.934772001857678e+04   1.682930484493861e-01   2.869355976244586e+00   1.104932244518356e+00  -1.083501608049623e-04
2017-01-01T13:22:10.000   1.517732695106602e+04  -3.933666023467962e+04   1.672092840147295e-01   2.868549656742472e+00   1.107024459216711e+00  -1.084027205635574e-04
2017-01-01T13:22:20.000   1.520600840967880e+04  -3.932557953146516e+04   1.661249942040399e-01   2.867741811570778e+00   1.109116085512503e+00  -1.084552338194727e-04
2017-01-01T13:22:30.000   1.523468178250212e+04  -3.931447791482257e+04   1.650401794825949e-01   2.866932441158569e+00   1.111207122293108e+00  -1.085077005204463e-04
2017-01-01T13:22:40.000   1.526334705427034e+04  -3.930335539065735e+04   1.639548403167475e-01   2.866121545936104e+00   1.113297568445107e+00  -1.085601206141999e-04
2017-01-01T13:22:50.000   1.529200420943234e+04  -3.929221196500109e+04   1.628689771844314e-01   2.865309126342831e+00   1.115387422834258e+00  -1.086124940479260e-04
2017-01-01T13:23:00.000   1.532065323252174e+04  -3.928104764386469e+04   1.617825905610386e-01   2.864495182816694e+00   1.117476684332502e+00  -1.086648207689751e-04
2017-01-01T13:23:10.000   1.534929410800817e+04  -3.926986243329709e+04   1.606956809250795e-01   2.863679715798408e+00   1.119565351807111e+00  -1.087171007245812e-04
2017-01-01T13:23:20.000   1.537792682095448e+04  -3.925865633912836e+04   1.596082487332457e-01   2.862862725712733e+00   1.121653424168618e+00  -1.087693338630717e-04
2017-01-01T13:23:30.000   1.540655135635777e+04  -3.924742936722710e+04   1.585202944454053e-01   2.862044212987238e+00   1.123740900322762e+00  -1.088215201326543e-04
2017-01-01T13:23:40.000   1.543516769931965e+04  -3.923618152343400e+04   1.574318185181559e-01   2.861224178047461e+00   1.125827779182899e+00  -1.088736594817314e-04
2017-01-01T13:23:50.000   1.546377583458831e+04  -3.922491281373925e+04   1.563428214221458e-01   2.860402621329835e+00   1.127914059636618e+00  -1.089257518580551e-04
2017-01-01T13:24:00.000   1.549237574693657e+04  -3.921362324413659e+04   1.552533036277893e-01   2.859579543271058e+00   1.129999740573295e+00  -1.089777972094263e-04
2017-01-01T13:24:10.000   1.552096742107471e+04  -3.920231282065688e+04   1.541632656085585e-01   2.858754944310530e+00   1.132084820877751e+00  -1.090297954835326e-04
2017-01-01T13:24:20.000   1.554955084168470e+04  -3.919098154935635e+04   1.530727078397376e-01   2.857928824889499e+00   1.134169299432739e+00  -1.090817466280167e-04
2017-01-01T13:24:30.000   1.557812599343574e+04  -3.917962943630893e+04   1.519816307977830e-01   2.857101185450515e+00   1.136253175120083e+00  -1.091336505905001e-04
2017-01-01T13:24:40.000   1.560669286101855e+04  -3.916825648759284e+04   1.508900349590178e-01   2.856272026436431e+00   1.138336446823172e+00  -1.091855073186446e-04
2017-01-01T13:24:50.000   1.563525142916176e+04  -3.915686270928536e+04   1.497979207990513e-01   2.855441348290037e+00   1.140419113428161e+00  -1.092373167601877e-04
2017-01-01T13:25:00.000   1.566380168266497e+04  -3.914544810744798e+04   1.487052887914561e-01   2.854609151452969e+00   1.142501173826383e+00  -1.092890788629961e-04
2017-01-01T13:25:10.000   1.569234360631232e+04  -3.913401268816157e+04   1.476121394111024e-01   2.853775436368280e+00   1.144582626908037e+00  -1.093407935749121e-04
2017-01-01T13:25:20.000   1.572087718524770e+04  -3.912255645737381e+04   1.465184731197041e-01   2.852940203469313e+00   1.146663471589561e+00  -1.093924608444211e-04
2017-01-01T13:25:30.000   1.574940240451989e+04  -3.911107942108365e+04   1.454242903833224e-01   2.852103453193149e+00   1.148743706780454e+00  -1.094440806198410e-04
2017-01-01T13:25:40.000   1.577791924925449e+04  -3.909958158527194e+04   1.443295916657555e-01   2.851265185975546e+00   1.150823331395822e+00  -1.094956528496285e-04
2017-01-01T13:25:50.000   1.580642770398727e+04  -3.908806295616986e+04   1.432343774541301e-01   2.850425402270519e+00   1.152902344307748e+00  -1.095471774811890e-04
2017-01-01T13:26:00.000   1.583492775333092e+04  -3.907652353999061e+04   1.421386482333140e-01   2.849584102530770e+00   1.154980744393930e+00  -1.095986544620669e-04
2017-01-01T13:26:10.000   1.586341938180293e+04  -3.906496334299843e+04   1.410424044925151e-01   2.848741287212724e+00   1.157058530525123e+00  -1.096500837396397e-04
2017-01-01T13:26:20.000   1.589190257428144e+04  -3.905338237132635e+04   1.399456467078361e-01   2.847896956763238e+00   1.159135701598378e+00  -1.097014652619268e-04
2017-01-01T13:26:30.000   1.592037731562892e+04  -3.904178063112627e+04   1.388483753566606e-01   2.847051111630548e+00   1.161212256509608e+00  -1.097527989769248e-04
